COSMOS 2433 (720)       
1 32275U 07052A   24131.67827530 -.00000069  00000+0  00000+0 0  9996
2 32275  65.9478 341.6352 0000513 249.7700 110.2621  2.13104051128744
COSMOS 2432 (719)       
1 32276U 07052B   24132.38185782 -.00000070  00000+0  00000+0 0  9994
2 32276  65.9624 341.7248 0009630 339.1983 146.9640  2.13103280128750
COSMOS 2434 (721)       
1 32393U 07065A   24132.08410348  .00000015  00000+0  00000+0 0  9992
2 32393  64.3201 217.8318 0001656  81.8096 121.6775  2.13103161127454
COSMOS 2436 (723)       
1 32395U 07065C   24132.08161828  .00000015  00000+0  00000+0 0  9990
2 32395  64.3287 217.8961 0016016 358.6521 338.1590  2.13102915127386
COSMOS 2456 (730)       
1 36111U 09070A   24132.31151222  .00000011  00000+0  00000+0 0  9997
2 36111  64.5980  97.2216 0006030 309.5769 223.6711  2.13099091112124
COSMOS 2457 (733)       
1 36112U 09070B   24129.30637610  .00000005  00000+0  00000+0 0  9996
2 36112  64.5810  97.1843 0002715 194.6274 325.9482  2.13101207112025
COSMOS 2460 (732)       
1 36402U 10007C   24131.56884123 -.00000068  00000+0  00000+0 0  9994
2 36402  65.8049 340.3113 0002434  57.7629  29.9241  2.13106247110468
COSMOS 2476 (744)       
1 37867U 11064A   24132.12930830  .00000012  00000+0  00000+0 0  9992
2 37867  64.8724  98.8493 0023795 241.6470  63.3264  2.13101658 97462
COSMOS 2477 (745)       
1 37868U 11064B   24130.32443627  .00000005  00000+0  00000+0 0  9998
2 37868  64.8786  98.9825 0021114 243.3408 294.8681  2.13103088 97377
COSMOS 2475 (743)       
1 37869U 11064C   24130.28373516  .00000005  00000+0  00000+0 0  9993
2 37869  64.8855  98.9983 0026371 256.7714 208.7819  2.13101851 97382
COSMOS 2485 (747)       
1 39155U 13019A   24131.67358876  .00000010  00000+0  00000+0 0  9997
2 39155  65.0300  99.4408 0024006 237.7551 121.9789  2.13101821 85925
COSMOS 2492 (754)       
1 39620U 14012A   24132.09838739 -.00000069  00000+0  00000+0 0  9991
2 39620  65.6871 339.8760 0012320 331.7621  28.2055  2.13103184 78899
COSMOS 2500 (755)       
1 40001U 14032A   24132.27826714 -.00000069  00000+0  00000+0 0  9998
2 40001  65.6242 339.6779 0004982 185.4060 174.6223  2.13106059 77111
COSMOS 2501 (702K)      
1 40315U 14075A   24131.59252814  .00000019  00000+0  00000+0 0  9995
2 40315  63.6220 216.9833 0020100 208.5536 151.3913  2.13101478 73491
COSMOS 2514 (751)       
1 41330U 16008A   24132.04401687 -.00000069  00000+0  00000+0 0  9992
2 41330  65.4194 339.2046 0008500 202.9339 157.0614  2.13102627 64277
COSMOS 2522 (752)       
1 42939U 17055A   24131.88459704  .00000016  00000+0  00000+0 0  9996
2 42939  64.0828 218.0423 0008627 237.2694 122.7012  2.13101805 51623
COSMOS 2527 (756)       
1 43508U 18053A   24131.84347264  .00000012  00000+0  00000+0 0  9997
2 43508  65.1905  99.5796 0009241 245.1637 114.7072  2.13102276 45923
COSMOS 2529 (757)       
1 43687U 18086A   24131.94264454  .00000016  00000+0  00000+0 0  9995
2 43687  64.2984 218.5430 0009918 259.1441 100.7973  2.13102052 42930
COSMOS 2534 (758)       
1 44299U 19030A   24131.39084963  .00000021  00000+0  00000+0 0  9995
2 44299  64.3715 218.5114 0011864 281.2379 149.5990  2.13102196 38564
COSMOS 2544 (759)       
1 44850U 19088A   24131.31819960  .00000008  00000+0  00000+0 0  9991
2 44850  65.1768  99.4352 0014896 262.5803  97.2164  2.13102112 34359
COSMOS 2545 (760)       
1 45358U 20018A   24131.98455227 -.00000070  00000+0  00000+0 0  9995
2 45358  64.7595 339.2479 0006906 246.6119 113.3484  2.13102554 32316
COSMOS 2547 (705K)      
1 46805U 20075A   24132.17207002  .00000014  00000+0  00000+0 0  9991
2 46805  64.6001 218.1155 0007734 238.8755 121.1024  2.13103109 27565
COSMOS 2557 (706K)      
1 52984U 22075A   24129.99042621 -.00000066  00000+0  00000+0 0  9996
2 52984  64.6850 341.4514 0010887 286.1049  73.8166  2.13101935 14321
COSMOS 2559 (707K)      
1 54031U 22130A   24132.27949415 -.00000072  00000+0  00000+0 0  9992
2 54031  64.6561 341.4903 0004914 218.5991 141.4008  2.13101329 12340
COSMOS 2564 (761)       
1 54377U 22161A   24132.00155740  .00000016  00000+0  00000+0 0  9997
2 54377  64.7413 218.2192 0010063 219.3093 140.6711  2.13102062 11284
COSMOS 2569 (703K)      
1 57517U 23114A   24132.01894397  .00000011  00000+0  00000+0 0  9999
2 57517  64.9033  98.5744 0012632 296.2494  63.5879  2.13103928  5911
